,valid_date,station,valid,max_tmpf,dwpf,relh,drct,sknt,p01i,alti,mslp,vsby,gust,skyc1,skyc2,skyc3,skyc4,skyl1,skyl2,skyl3,skyl4,wxcodes,metar
2,2018-04-02 00:56:00,SFO,2018-04-02 00:56,54.0,46.9,76.83,260.0,17.0,0.0,29.91,1012.9,10.0,M,FEW,M,M,M,20000.00,M,M,M,M,KSFO 020756Z 26017KT 10SM FEW200 12/08 A2991 RMK AO2 SLP129 T01220083 401940100
3,2018-04-02 02:56:00,SFO,2018-04-02 02:56,53.1,46.9,79.4,270.0,17.0,0.0,29.9,1012.5,10.0,M,FEW,FEW,M,M,1100.00,20000.00,M,M,M,KSFO 020956Z 27017KT 10SM FEW011 FEW200 12/08 A2990 RMK AO2 SLP125 T01170083
0,2018-04-01 00:56:00,SFO,2018-04-01 00:56,52.0,46.9,82.68,290.0,5.0,0.0,30.0,1016.0,10.0,M,FEW,M,M,M,1000.00,M,M,M,M,KSFO 010756Z 29005KT 10SM FEW010 11/08 A3000 RMK AO2 SLP160 T01110083 401780106
1,2018-04-01 02:56:00,SFO,2018-04-01 02:56,51.1,46.0,82.62,280.0,4.0,0.0,29.99,1015.4,10.0,M,CLR,M,M,M,M,M,M,M,M,KSFO 010956Z 28004KT 10SM CLR 11/08 A2999 RMK AO2 SLP154 T01060078
4,2018-04-03 01:56:00,SFO,2018-04-03 01:56,51.1,44.1,76.86,300.0,4.0,0.0,29.94,1013.9,10.0,M,FEW,M,M,M,20000.00,M,M,M,M,KSFO 030856Z 30004KT 10SM FEW200 11/07 A2994 RMK AO2 SLP139 T01060067 50001
5,2018-04-03 03:56:00,SFO,2018-04-03 03:56,50.0,43.0,76.76,280.0,3.0,0.0,29.93,1013.6,10.0,M,FEW,M,M,M,20000.00,M,M,M,M,KSFO 031056Z 28003KT 10SM FEW200 10/06 A2993 RMK AO2 SLP136 T01000061
