station,valid,tmpf,dwpf,relh,drct,sknt,p01i,alti,mslp,vsby,gust,skyc1,skyc2,skyc3,skyc4,skyl1,skyl2,skyl3,skyl4,wxcodes,metar
SFO,2018-04-01 00:56,52.00,46.90,82.68,290.00,5.00,0.00,30.00,1016.00,10.00,M,FEW,M,M,M,1000.00,M,M,M,M,KSFO 010756Z 29005KT 10SM FEW010 11/08 A3000 RMK AO2 SLP160 T01110083 401780106
SFO,2018-04-01 02:56,51.10,46.00,82.62,280.00,4.00,0.00,29.99,1015.40,10.00,M,CLR,M,M,M,M,M,M,M,M,KSFO 010956Z 28004KT 10SM CLR 11/08 A2999 RMK AO2 SLP154 T01060078
SFO,2018-04-02 00:56,54.00,46.90,76.83,260.00,17.00,0.00,29.91,1012.90,10.00,M,FEW,M,M,M,20000.00,M,M,M,M,KSFO 020756Z 26017KT 10SM FEW200 12/08 A2991 RMK AO2 SLP129 T01220083 401940100
DFW,2018-04-02 02:56,53.10,46.90,79.40,270.00,17.00,0.00,29.90,1012.50,10.00,M,FEW,FEW,M,M,1100.00,20000.00,M,M,M,KSFO 020956Z 27017KT 10SM FEW011 FEW200 12/08 A2990 RMK AO2 SLP125 T01170083
DFW,2018-04-03 01:56,51.10,44.10,76.86,300.00,4.00,0.00,29.94,1013.90,10.00,M,FEW,M,M,M,20000.00,M,M,M,M,KSFO 030856Z 30004KT 10SM FEW200 11/07 A2994 RMK AO2 SLP139 T01060067 50001
DFW,2018-04-03 03:56,50.00,43.00,76.76,280.00,3.00,0.00,29.93,1013.60,10.00,M,FEW,M,M,M,20000.00,M,M,M,M,KSFO 031056Z 28003KT 10SM FEW200 10/06 A2993 RMK AO2 SLP136 T01000061
